NUSAT-3 (MILANESAT)     
1 42760U 17034C   21103.68197894  .00000349  00000-0  33869-4 0  9992
2 42760  43.0155 174.4186 0007615 147.1691 349.1004 15.10721582211397
ZHUHAI-1 01 (CAS-4A)    
1 42761U 17034D   21103.67878929  .00000333  00000-0  33367-4 0  9993
2 42761  43.0173 176.2736 0008108 120.7805  14.1250 15.10232022211355
CHINASAT 9A (ZX 9A)     
1 42763U 17035A   21103.74447852 -.00000067  00000-0  00000+0 0  9999
2 42763   0.1481  97.8318 0007322 283.2971  92.0004  0.99791516 14692
UCLSAT                  
1 42765U 17036A   21102.89570457  .00001806  00000-0  75956-4 0  9993
2 42765  97.2574 154.5114 0012319  55.6264 304.6137 15.24586811211598
NIUSAT                  
1 42766U 17036B   21103.18900889  .00001168  00000-0  53147-4 0  9992
2 42766  97.2580 151.4098 0016379  50.6022 309.6662 15.22521955211280
CARTOSAT-2E             
1 42767U 17036C   21103.82051266  .00000607  00000-0  32096-4 0  9997
2 42767  97.5123 163.2258 0010159  76.4886 348.2440 15.19196441211131
LITUANICASAT-2          
1 42768U 17036D   21103.10116031  .00003326  00000-0  13239-3 0  9999
2 42768  97.2644 155.3151 0014903  43.8494 316.3925 15.25834728211504
CE-SAT-I                
1 42769U 17036E   21103.15474555  .00000881  00000-0  42081-4 0  9994
2 42769  97.2555 150.0269 0016969  51.1639 309.1108 15.21439411211144
LEMUR-2-SHAINAJOHL      
1 42771U 17036G   21103.10159280  .00002249  00000-0  94793-4 0  9994
2 42771  97.2597 153.5600 0014950  47.4235 312.8262 15.24234004211357
LEMUR-2-XUENITERENCE    
1 42772U 17036H   21103.17493106  .00001817  00000-0  76720-4 0  9990
2 42772  97.2573 153.6588 0014425  46.0184 314.2241 15.24434885211388
LEMUR-2-LUCYBRYCE       
1 42773U 17036J   21103.07223785  .00001419  00000-0  61689-4 0  9990
2 42773  97.2650 154.2375 0014637  46.1206 314.1238 15.23790069211379
LEMUR-2-KUNGFOO         
1 42774U 17036K   21103.03385887  .00002282  00000-0  95683-4 0  9999
2 42774  97.2597 153.8008 0014340  46.4852 313.7574 15.24413017211351
AALTO-1                 
1 42775U 17036L   21103.62042126  .00001174  00000-0  53462-4 0  9999
2 42775  97.2549 152.1056 0014825  48.7702 311.4809 15.22511211211338
URSA MAIOR              
1 42776U 17036M   21103.10803524  .00001243  00000-0  56015-4 0  9994
2 42776  97.2563 152.0399 0014645  49.9751 310.2769 15.22756802211273
COMPASS 2               
1 42777U 17036N   21103.18168791  .00002183  00000-0  89262-4 0  9997
2 42777  97.2626 155.6232 0012835  46.0781 314.1514 15.25327276211463
MAX VALIER SAT          
1 42778U 17036P   21102.88676379  .00001339  00000-0  59058-4 0  9992
2 42778  97.2628 153.6277 0013266  53.7787 306.4674 15.23399620211307
LEMUR-2-LYNSEY-SYMO     
1 42779U 17036Q   21103.07226742  .00002545  00000-0  10147-3 0  9995
2 42779  97.2645 156.6617 0012288  49.9306 310.3008 15.26033926211510
LEMUR-2-LISASAURUS      
1 42780U 17036R   21103.10309659  .00001445  00000-0  61820-4 0  9993
2 42780  97.2636 155.1078 0012845  52.7621 307.4786 15.24315630211432
LEMUR-2-SAM-AMELIA      
1 42781U 17036S   21103.07289361  .00001484  00000-0  62916-4 0  9997
2 42781  97.2655 155.7883 0012867  52.1320 308.1080 15.24596107211455
LEMUR-2-MCPEAKE         
1 42782U 17036T   21102.89752183  .00002311  00000-0  94165-4 0  9995
2 42782  97.2614 155.7088 0012305  51.8028 308.4317 15.25392961211444
DIAMOND RED             
1 42783U 17036U   21103.10865724  .00001385  00000-0  60508-4 0  9991
2 42783  97.2577 153.6424 0013147  57.4335 302.8170 15.23671475211366
PEGASUS                 
1 42784U 17036V   21102.92332771  .00001666  00000-0  71134-4 0  9991
2 42784  97.2583 154.0960 0012918  56.6048 303.6424 15.24182106211372
DIAMOND GREEN           
1 42785U 17036W   21103.17317136  .00001265  00000-0  55482-4 0  9991
2 42785  97.2580 153.7502 0013062  58.1165 302.1341 15.23683222211361
DIAMOND BLUE            
1 42786U 17036X   21103.36926442  .00001249  00000-0  54809-4 0  9993
2 42786  97.2579 153.9332 0012888  57.7557 302.4928 15.23679319211397
NUDTSAT                 
1 42787U 17036Y   21103.20686993  .00002512  00000-0  10033-3 0  9995
2 42787  97.2625 156.5648 0012326  48.7926 311.4372 15.25983219211387
SUCHAI                  
1 42788U 17036Z   21103.08655220  .00002008  00000-0  83338-4 0  9990
2 42788  97.2592 155.1593 0012345  54.0733 306.1648 15.24920778211525
SKCUBE                  
1 42789U 17036AA  21102.57982264  .00001777  00000-0  74603-4 0  9992
2 42789  97.2586 154.4110 0012314  56.2245 304.0164 15.24677796211354
VZLUSAT-1               
1 42790U 17036AB  21102.21636359  .00002316  00000-0  92794-4 0  9997
2 42790  97.2615 155.5936 0011579  54.4930 305.7387 15.25956239211381
ROBUSTA-1B              
1 42792U 17036AD  21103.41176125  .00001635  00000-0  68382-4 0  9991
2 42792  97.2587 155.5716 0011824  53.8853 306.3478 15.24910583211511
CICERO 6                
1 42793U 17036AE  21103.36074190  .00001118  00000-0  49076-4 0  9990
2 42793  97.2560 154.4654 0011399  57.7297 302.5044 15.23888822211521
D-SAT                   
1 42794U 17036AF  21102.81569692  .00000529  00000-0  50391-4 0  9993
2 42794  97.4669 126.1772 0127310  85.3966 276.1782 14.91507039207311
TYVAK-53B               
1 42795U 17036AG  21102.89329736  .00002066  00000-0  81820-4 0  9994
2 42795  97.2413 153.1838 0006325 177.3879 182.7394 15.26509692211500
COSMOS 2519             
1 42798U 17037A   21103.65376088  .00023651  25540-5  19516-3 0  9991
2 42798  97.8481 249.4867 0133311 324.5454  34.6993 15.59991906211190
BULGARIASAT-1           
1 42801U 17038A   21102.73945176  .00000008  00000-0  00000+0 0  9999
2 42801   0.0333 271.8248 0002837 122.0143  75.4125  1.00273824 13949
IRIDIUM 113             
1 42803U 17039A   21103.09489895  .00000080  00000-0  21479-4 0  9991
2 42803  86.4025  32.3445 0002559  84.1350 276.0138 14.34216094200134
IRIDIUM 123             
1 42804U 17039B   21103.13637732  .00000012  00000-0 -29429-5 0  9992
2 42804  86.3970  63.8859 0002395  91.2976 268.8494 14.34215939198904
IRIDIUM 120             
1 42805U 17039C   21103.08854659  .00000094  00000-0  26652-4 0  9999
2 42805  86.4014  32.3747 0002643  82.7707 277.3789 14.34215507200126
IRIDIUM 115             
1 42806U 17039D   21103.05059692  .00000100  00000-0  23863-4 0  9990
2 42806  86.4552  32.2331 0003597 122.2660 237.8889 14.43280422201490
IRIDIUM 118             
1 42807U 17039E   21103.16808268  .00000068  00000-0  17174-4 0  9995
2 42807  86.3969  63.8787 0002128  93.8044 266.3395 14.34220150198918
IRIDIUM 117             
1 42808U 17039F   21103.11735500  .00000073  00000-0  19004-4 0  9999
2 42808  86.3969  63.8740 0002560  79.3572 280.7912 14.34216767198939
IRIDIUM 126             
1 42809U 17039G   21103.14272006  .00000068  00000-0  17188-4 0  9995
2 42809  86.3970  63.8851 0002365  87.0187 273.1279 14.34216387198914
IRIDIUM 124             
1 42810U 17039H   21103.19238844  .00000117  00000-0  28679-4 0  9996
2 42810  86.4543   0.6391 0002158  77.1685 282.9757 14.43273608202367
IRIDIUM 128             
1 42811U 17039J   21103.41253748  .00000060  00000-0  14245-4 0  9993
2 42811  86.3922  95.3417 0002975  91.9134 268.2402 14.34216722198977
IRIDIUM 121             
1 42812U 17039K   21103.16175351  .00000064  00000-0  15779-4 0  9996
2 42812  86.3971  63.8943 0002381  89.2680 270.8789 14.34219139198908
HELLAS-SAT 3            
1 42814U 17040A   21103.75180633  .00000152  00000-0  00000+0 0  9998
2 42814   0.0594  31.5458 0004952 345.0146 135.2109  1.00272344 13905
GSAT-17                 
1 42815U 17040B   21103.76262358 -.00000258  00000-0  00000+0 0  9993
2 42815   0.0748  99.3515 0002683 201.1158 269.7137  1.00270038 13910
INTELSAT 35E (IS-35E)   
1 42818U 17041A   21103.73715071 -.00000239  00000-0  00000+0 0  9998
2 42818   0.0137 209.7046 0001927 177.7861  45.5261  1.00272305 13883
KANOPUS-V-IK            
1 42825U 17042A   21103.80666037  .00000268  00000-0  15827-4 0  9991
2 42825  97.4504  13.6040 0001672  84.2645   0.8825 15.19435660207913
NORSAT 1                
1 42826U 17042B   21102.87815291  .00000236  00000-0  28918-4 0  9996
2 42826  97.4820 335.8300 0015132   9.7268 350.4241 14.91314358203913
2017-042C               
1 42827U 17042C   21103.61165942  .00000369  00000-0  41933-4 0  9990
2 42827  97.4825 337.0595 0015260   6.8691 353.2734 14.91591229204002
NORSAT 2                
1 42828U 17042D   21103.10481665  .00000337  00000-0  38635-4 0  9998
2 42828  97.4871 337.3772 0014665  10.1603 349.9911 14.91790738203973
TECHNOSAT               
1 42829U 17042E   21103.63709225  .00000177  00000-0  23070-4 0  9991
2 42829  97.4788 336.5837 0014450  10.2196 349.9314 14.91252364204026
2017-042F               
1 42830U 17042F   21103.59086450  .00001043  00000-0  10593-3 0  9994
2 42830  97.4902 338.9187 0014304   3.2579 356.8731 14.92752870204124
FLYING LAPTOP           
1 42831U 17042G   21103.81235617  .00000804  00000-0  85897-4 0  9995
2 42831  97.4809 336.9566 0014300  10.0445 350.1051 14.91273870204055
2017-042H               
1 42832U 17042H   21103.60564429  .00000272  00000-0  32446-4 0  9990
2 42832  97.4804 337.0750 0014007   7.8025 352.3410 14.91466169204047
2017-042J               
1 42833U 17042J   21103.62718803  .00000078  00000-0  12977-4 0  9991
2 42833  97.4804 337.1922 0013969   8.1032 352.0410 14.91522570204066
2017-042K               
1 42834U 17042K   21103.64881669  .00000340  00000-0  39211-4 0  9997
2 42834  97.4809 337.2406 0013764  11.7106 348.4431 14.91503794204053
WNISAT 1R               
1 42835U 17042L   21102.89662626  .00000042  00000-0  94923-5 0  9995
2 42835  97.4790 336.1762 0013554  11.4580 348.6945 14.91354561203930
2017-042M               
1 42836U 17042M   21103.63847296  .00000258  00000-0  31002-4 0  9994
2 42836  97.4806 337.1535 0013484  11.9044 348.2492 14.91465359204066
